{
"type": "FeatureCollection",
"name": "Lokoja_Health_Facilities",
"crs": { "type": "name", "properties": { "name": "urn:ogc:def:crs:EPSG::32632" } },
"features": [
{ "type": "Feature", "properties": { "element": "node", "id": 8851563676, "name": "Federal Medical Centre", "amenity": "hospital", "healthcare": "hospital", "operator": null }, "geometry": { "type": "Point", "coordinates": [ 250940.217357969697332, 862847.111430671648122 ] } },
{ "type": "Feature", "properties": { "element": "node", "id": 9989986440, "name": null, "amenity": "pharmacy", "healthcare": null, "operator": null }, "geometry": { "type": "Point", "coordinates": [ 234849.203893657133449, 905949.74200296739582 ] } },
{ "type": "Feature", "properties": { "element": "node", "id": 9989986443, "name": null, "amenity": "pharmacy", "healthcare": null, "operator": null }, "geometry": { "type": "Point", "coordinates": [ 234899.755914454697631, 905935.729795464547351 ] } },
{ "type": "Feature", "properties": { "element": "node", "id": 9990023856, "name": null, "amenity": "pharmacy", "healthcare": null, "operator": null }, "geometry": { "type": "Point", "coordinates": [ 199435.592785783170257, 946107.035262246383354 ] } },
{ "type": "Feature", "properties": { "element": "node", "id": 9990029957, "name": null, "amenity": "pharmacy", "healthcare": null, "operator": null }, "geometry": { "type": "Point", "coordinates": [ 196795.979885427397676, 947476.034576828009449 ] } },
{ "type": "Feature", "properties": { "element": "node", "id": 9990029972, "name": null, "amenity": "pharmacy", "healthcare": null, "operator": null }, "geometry": { "type": "Point", "coordinates": [ 196627.415634604694787, 947429.604036666452885 ] } },
{ "type": "Feature", "properties": { "element": "node", "id": 9990029982, "name": null, "amenity": "pharmacy", "healthcare": null, "operator": null }, "geometry": { "type": "Point", "coordinates": [ 196672.367127775563858, 947551.288304844056256 ] } },
{ "type": "Feature", "properties": { "element": "node", "id": 9990029992, "name": null, "amenity": "pharmacy", "healthcare": null, "operator": null }, "geometry": { "type": "Point", "coordinates": [ 196634.467740431020502, 947475.885604844545014 ] } },
{ "type": "Feature", "properties": { "element": "node", "id": 9990036667, "name": null, "amenity": "pharmacy", "healthcare": null, "operator": null }, "geometry": { "type": "Point", "coordinates": [ 217278.367194856342394, 930865.047188825439662 ] } },
{ "type": "Feature", "properties": { "element": "node", "id": 9990036683, "name": null, "amenity": "pharmacy", "healthcare": null, "operator": null }, "geometry": { "type": "Point", "coordinates": [ 216987.320652486465406, 930875.965711329947226 ] } },
{ "type": "Feature", "properties": { "element": "node", "id": 9990036688, "name": null, "amenity": "pharmacy", "healthcare": null, "operator": null }, "geometry": { "type": "Point", "coordinates": [ 217010.713347120617982, 930806.834092223085463 ] } },
{ "type": "Feature", "properties": { "element": "node", "id": 9990036700, "name": null, "amenity": "pharmacy", "healthcare": null, "operator": null }, "geometry": { "type": "Point", "coordinates": [ 216999.517814791761339, 930850.543138908571564 ] } },
{ "type": "Feature", "properties": { "element": "node", "id": 9990037929, "name": null, "amenity": "pharmacy", "healthcare": null, "operator": null }, "geometry": { "type": "Point", "coordinates": [ 205660.557014358404558, 939484.467456028680317 ] } },
{ "type": "Feature", "properties": { "element": "node", "id": 9990037932, "name": null, "amenity": "pharmacy", "healthcare": null, "operator": null }, "geometry": { "type": "Point", "coordinates": [ 205484.197902631771285, 939558.231438737246208 ] } },
{ "type": "Feature", "properties": { "element": "node", "id": 9990040852, "name": null, "amenity": "pharmacy", "healthcare": null, "operator": null }, "geometry": { "type": "Point", "coordinates": [ 212260.622294127824716, 938750.635915675899014 ] } },
{ "type": "Feature", "properties": { "element": "node", "id": 9990040860, "name": null, "amenity": "pharmacy", "healthcare": null, "operator": null }, "geometry": { "type": "Point", "coordinates": [ 212313.555919522012118, 938726.5075802532956 ] } },
{ "type": "Feature", "properties": { "element": "node", "id": 9990045028, "name": null, "amenity": "pharmacy", "healthcare": null, "operator": null }, "geometry": { "type": "Point", "coordinates": [ 196758.45003686734708, 947507.560374009190127 ] } },
{ "type": "Feature", "properties": { "element": "node", "id": 9990045034, "name": null, "amenity": "pharmacy", "healthcare": null, "operator": null }, "geometry": { "type": "Point", "coordinates": [ 196820.150314657599665, 947625.084723370731808 ] } },
{ "type": "Feature", "properties": { "element": "node", "id": 9990045049, "name": null, "amenity": "pharmacy", "healthcare": null, "operator": null }, "geometry": { "type": "Point", "coordinates": [ 196712.664788849651814, 947575.482733735931106 ] } },
{ "type": "Feature", "properties": { "element": "node", "id": 9990045056, "name": null, "amenity": "pharmacy", "healthcare": null, "operator": null }, "geometry": { "type": "Point", "coordinates": [ 196653.072736551461276, 947584.631606377894059 ] } },
{ "type": "Feature", "properties": { "element": "node", "id": 9990045058, "name": null, "amenity": "pharmacy", "healthcare": null, "operator": null }, "geometry": { "type": "Point", "coordinates": [ 196661.067777075630147, 947547.262917980668135 ] } },
{ "type": "Feature", "properties": { "element": "node", "id": 9990045067, "name": null, "amenity": "pharmacy", "healthcare": null, "operator": null }, "geometry": { "type": "Point", "coordinates": [ 196764.469347020669375, 947505.037948669283651 ] } },
{ "type": "Feature", "properties": { "element": "node", "id": 9990045074, "name": null, "amenity": "pharmacy", "healthcare": null, "operator": null }, "geometry": { "type": "Point", "coordinates": [ 196274.620365581067745, 947576.498436745838262 ] } },
{ "type": "Feature", "properties": { "element": "node", "id": 9990045104, "name": null, "amenity": "pharmacy", "healthcare": null, "operator": null }, "geometry": { "type": "Point", "coordinates": [ 196606.018887222453486, 947470.909491824568249 ] } },
{ "type": "Feature", "properties": { "element": "node", "id": 9990045105, "name": null, "amenity": "pharmacy", "healthcare": null, "operator": null }, "geometry": { "type": "Point", "coordinates": [ 196763.671199982170947, 947485.895443662302569 ] } },
{ "type": "Feature", "properties": { "element": "node", "id": 9990045120, "name": null, "amenity": "pharmacy", "healthcare": null, "operator": null }, "geometry": { "type": "Point", "coordinates": [ 196815.774535848759115, 947623.267654777970165 ] } },
{ "type": "Feature", "properties": { "element": "node", "id": 9990045139, "name": null, "amenity": "pharmacy", "healthcare": null, "operator": null }, "geometry": { "type": "Point", "coordinates": [ 196564.444215719646309, 947479.154541344498284 ] } },
{ "type": "Feature", "properties": { "element": "node", "id": 9990055531, "name": null, "amenity": "pharmacy", "healthcare": null, "operator": null }, "geometry": { "type": "Point", "coordinates": [ 198493.674758812470827, 945986.893208127934486 ] } },
{ "type": "Feature", "properties": { "element": "node", "id": 9990055537, "name": null, "amenity": "pharmacy", "healthcare": null, "operator": null }, "geometry": { "type": "Point", "coordinates": [ 198689.521442997734994, 946019.768070747726597 ] } },
{ "type": "Feature", "properties": { "element": "way", "id": 617512416, "name": "Kogi State Specialist Hospital, Lokoja", "amenity": "hospital", "healthcare": "hospital", "operator": null }, "geometry": { "type": "Polygon", "coordinates": [ [ [ 249721.840311435051262, 862185.617352142115124 ], [ 249909.386156340304296, 862222.503209232003428 ], [ 249925.11960818656371, 862121.605680147535168 ], [ 249763.096426122472622, 862084.925488988403231 ], [ 249721.840311435051262, 862185.617352142115124 ] ] ] } },
{ "type": "Feature", "properties": { "element": "way", "id": 632763108, "name": "Chucks Shopping Mall", "amenity": "pharmacy", "healthcare": null, "operator": null }, "geometry": { "type": "Polygon", "coordinates": [ [ [ 251238.333836831821827, 862916.00347277650144 ], [ 251237.914127357245889, 862909.732611011131667 ], [ 251253.168369897612138, 862908.699583549052477 ], [ 251253.599110743554775, 862914.970385877881199 ], [ 251238.333836831821827, 862916.00347277650144 ] ] ] } },
{ "type": "Feature", "properties": { "element": "way", "id": 773166778, "name": "Specialist Hospital", "amenity": "hospital", "healthcare": "hospital", "operator": "Kogi State Government" }, "geometry": { "type": "Polygon", "coordinates": [ [ [ 249858.130586275452515, 862129.632619710289873 ], [ 249851.839124018704752, 862160.069654112332501 ], [ 249824.764859179849736, 862154.539371257065795 ], [ 249831.067340444569709, 862124.10226911935024 ], [ 249858.130586275452515, 862129.632619710289873 ] ] ] } }
]
}
