{
"type": "FeatureCollection",
"name": "Lokoja_Education_Facilities",
"crs": { "type": "name", "properties": { "name": "urn:ogc:def:crs:EPSG::32632" } },
"features": [
{ "type": "Feature", "properties": { "element": "node", "id": 5987035092, "name": null, "amenity": "school" }, "geometry": { "type": "Point", "coordinates": [ 234155.141268400999252, 919904.179896148736589 ] } },
{ "type": "Feature", "properties": { "element": "node", "id": 8851563682, "name": "Federal University Lokoja", "amenity": "university" }, "geometry": { "type": "Point", "coordinates": [ 249879.657947932457319, 861989.881178195471875 ] } },
{ "type": "Feature", "properties": { "element": "node", "id": 9990022015, "name": null, "amenity": "school" }, "geometry": { "type": "Point", "coordinates": [ 198533.599659557687119, 946078.032481932430528 ] } },
{ "type": "Feature", "properties": { "element": "node", "id": 9990029981, "name": null, "amenity": "school" }, "geometry": { "type": "Point", "coordinates": [ 196449.816909458313603, 947015.868831868399866 ] } },
{ "type": "Feature", "properties": { "element": "node", "id": 9990030012, "name": null, "amenity": "kindergarten" }, "geometry": { "type": "Point", "coordinates": [ 196562.693269287585281, 947008.80639673396945 ] } },
{ "type": "Feature", "properties": { "element": "node", "id": 9990037927, "name": null, "amenity": "school" }, "geometry": { "type": "Point", "coordinates": [ 205228.643888001155574, 939513.046403554733843 ] } },
{ "type": "Feature", "properties": { "element": "node", "id": 9990037930, "name": null, "amenity": "school" }, "geometry": { "type": "Point", "coordinates": [ 205278.018050766550004, 939549.826215222361498 ] } },
{ "type": "Feature", "properties": { "element": "node", "id": 9990045054, "name": null, "amenity": "school" }, "geometry": { "type": "Point", "coordinates": [ 196650.37416479975218, 947154.169785092235543 ] } },
{ "type": "Feature", "properties": { "element": "way", "id": 636153576, "name": null, "amenity": "school" }, "geometry": { "type": "Polygon", "coordinates": [ [ [ 201918.051339343655854, 949661.564167115022428 ], [ 202004.213554782327265, 949577.991095050005242 ], [ 202063.926652468973771, 949641.265629286179319 ], [ 201976.684616872109473, 949723.230291484622285 ], [ 201918.051339343655854, 949661.564167115022428 ] ] ] } },
{ "type": "Feature", "properties": { "element": "way", "id": 639483780, "name": null, "amenity": "school" }, "geometry": { "type": "Polygon", "coordinates": [ [ [ 193431.32845327060204, 955442.317665630602278 ], [ 193471.943848118651658, 955412.401312582544051 ], [ 193509.389861015544739, 955393.4550624510739 ], [ 193543.795845878776163, 955434.888436929439195 ], [ 193521.980975706363097, 955455.391900817165151 ], [ 193491.785808405838907, 955500.351908174110577 ], [ 193476.005542314785998, 955531.16054893808905 ], [ 193417.805384057981428, 955462.439652677159756 ], [ 193431.32845327060204, 955442.317665630602278 ] ] ] } },
{ "type": "Feature", "properties": { "element": "way", "id": 640127407, "name": null, "amenity": "school" }, "geometry": { "type": "Polygon", "coordinates": [ [ [ 195922.351617340871599, 944667.783710429794155 ], [ 195957.653771270357538, 944658.65407090599183 ], [ 195993.143226479878649, 944649.523124649887905 ], [ 196033.952840422396548, 944654.034649294684641 ], [ 196022.31989058147883, 944745.11110585636925 ], [ 195954.623853772005532, 944755.590582797653042 ], [ 195922.351617340871599, 944667.783710429794155 ] ] ] } },
{ "type": "Feature", "properties": { "element": "way", "id": 640127413, "name": null, "amenity": "school" }, "geometry": { "type": "Polygon", "coordinates": [ [ [ 196038.254461028031074, 945462.383295876672491 ], [ 196049.475742068316322, 945587.674508684314787 ], [ 195915.757278431730811, 945583.497116206563078 ], [ 195914.554244824859779, 945612.405326781212352 ], [ 195860.596768644172698, 945611.862418523989618 ], [ 195860.251922345894855, 945497.683254011673853 ], [ 195957.826401924772654, 945497.913593776058406 ], [ 195960.382976822555065, 945461.081795557285659 ], [ 196038.254461028031074, 945462.383295876672491 ] ] ] } }
]
}
