{"type":"FeatureCollection","features":[{"type":"Feature","geometry":{"type":"Polygon","coordinates":[[[6.210898994970231,8.725470858181632],[6.207733090302049,8.72089132532235],[6.202966318231725,8.711513844928998],[6.1941818807656315,8.696437626504794],[6.184313884550052,8.685994446343031],[6.175904010132603,8.679907710511326],[6.17115507228276,8.671685198524218],[6.168149661840564,8.656970137774902],[6.162062973227652,8.637461547183854],[6.153844814317752,8.614532858654732],[6.1497558058780655,8.604455295346293],[6.146326798468081,8.592286394887553],[6.141707143273935,8.57783004270834],[6.138273650403549,8.565197388072427],[6.133814586110998,8.546357651948378],[6.131665246337222,8.527705218340389],[6.132757781596132,8.509463036759318],[6.129186004241166,8.488300192939663],[6.127834894204425,8.47609558203179],[6.121627820890479,8.463512051113199],[6.123589839400766,8.442023595031074],[6.117913403651467,8.43358696650298],[6.115117509709403,8.432017372480935],[6.109677456810196,8.409503408554205],[6.1092181444500335,8.40861158299484],[6.10955706990749,8.408196913407137],[6.114858926076803,8.408107711360005],[6.120147412609106,8.406863591153805],[6.1270500897144835,8.405824639986486],[6.134470063159921,8.408232533524398],[6.141007098325714,8.412963638832515],[6.146135067704957,8.416330291815878],[6.15474558156157,8.420793871116436],[6.163958064781121,8.419946590067532],[6.1736298548715585,8.418863066300117],[6.192500808187593,8.416236680303703],[6.204932791874461,8.41464475048975],[6.221092553141557,8.415291349479228],[6.254263822792292,8.398141643415906],[6.278788887616492,8.374223024892316],[6.289495126439661,8.36574621888961],[6.303135547137389,8.353300851776728],[6.3245169414830436,8.334505801075402],[6.339695692802322,8.317427456673775],[6.3590214282961695,8.300050264375006],[6.37077565581141,8.285103397186345],[6.390315409139322,8.252284402838388],[6.406622344097366,8.233574023677967],[6.418465688862771,8.21010132827564],[6.4267819233736825,8.196367295539785],[6.4362976730638435,8.18583488320212],[6.45211858153897,8.165523681547871],[6.4669495202063585,8.141306304760992],[6.467333009512609,8.122176747966293],[6.466280696357548,8.114128085314366],[6.455413809687127,8.098414220897688],[6.4518777794004585,8.093638556444757],[6.450004968483286,8.092055556973344],[6.445202511739589,8.080154159911208],[6.430037061944259,8.05552658939985],[6.4253238091505205,8.035099416661637],[6.416325335456074,8.020736697044526],[6.418015381448129,8.011029189168],[6.4261353853623655,7.98531354419097],[6.432882022622941,7.974602804407633],[6.4424111304131815,7.950474649190908],[6.449487693225564,7.9316928844813095],[6.445532462155048,7.9153993443348085],[6.428953514048128,7.903007463910963],[6.412008936591553,7.910668256893461],[6.391465865468624,7.924152536207354],[6.378802017905107,7.940031372556832],[6.357326963441389,7.967124885142958],[6.342045651974954,7.97798285442821],[6.323602832103014,7.993041226517305],[6.30926677005422,8.005036146496707],[6.299938333375677,8.013026887330875],[6.2798947282289586,8.02903952268367],[6.256025103976623,8.05063940606043],[6.244355694092885,8.056596786402979],[6.235651499823307,8.06043162554484],[6.2232418531273135,8.06340581480188],[6.205169080626671,8.058411637000662],[6.195787135673664,8.04889587357927],[6.191675833137282,8.037213031938665],[6.194052584549071,8.02726482419804],[6.196678961985098,8.018466975750858],[6.202489143017884,8.007078458108051],[6.207474441418133,8.001459942612964],[6.219656731119603,7.984435138032675],[6.220432590871011,7.975436648523957],[6.221886250519644,7.9652744130107145],[6.2247133181916565,7.95485341882681],[6.224387852962442,7.948869354074464],[6.227223783448507,7.93891218113736],[6.234532269490514,7.934412902498013],[6.2418362701100705,7.92944991630906],[6.246192781219955,7.927764423319483],[6.2567430675179985,7.924130273850026],[6.268225209718596,7.9209375538513855],[6.278927116617678,7.912233364765537],[6.293058011018982,7.901625153681154],[6.292496132410427,7.8954136161368815],[6.3060339596894375,7.876520391233628],[6.300647396379811,7.857252691882486],[6.303296052858189,7.850064553581646],[6.300607251341338,7.840664829259257],[6.299786757303325,7.832616088872684],[6.297392244917795,7.827354389938296],[6.300232646663616,7.817397195094353],[6.298770096080449,7.812585867631834],[6.296277416141773,7.801108115855045],[6.293191730603542,7.795627855612883],[6.290391464065786,7.793830833530623],[6.286440669527192,7.7892780785284375],[6.29557732327886,7.786370790950821],[6.3006785392153555,7.7879002392478],[6.305061886393244,7.7880518342159535],[6.31192885248759,7.7847119931546205],[6.325631707347274,7.776186199250601],[6.332017167908573,7.771700366012503],[6.338442720329562,7.769515379881387],[6.35159701833928,7.769983620952152],[6.3664860131825245,7.777568513739251],[6.377673880484984,7.784752142674015],[6.390230699351451,7.790990385237874],[6.39907313367792,7.79567693726706],[6.4158080929549035,7.803458027503204],[6.425836660389184,7.810200245205216],[6.437947534473784,7.817138596880221],[6.45307277514665,7.825410186034573],[6.466334202004843,7.832326303342855],[6.479542050160086,7.836022884793964],[6.49250909743019,7.838796439453003],[6.512218293207722,7.845146198308234],[6.5240126828655916,7.847018981802891],[6.538642948787374,7.852994194364879],[6.548653640743165,7.844298942370609],[6.54701269729131,7.8427115012598625],[6.552653424386495,7.835015145880525],[6.553924340439381,7.833735327507323],[6.560826962013247,7.826810357806076],[6.580612025946084,7.8234793858967535],[6.603393562411095,7.820099455047754],[6.619482037962783,7.816371629111714],[6.620373864150929,7.814512145328048],[6.645313591623178,7.815930152913424],[6.653045629603763,7.809116681706043],[6.669914448735112,7.7968496649987555],[6.683541431376892,7.78348573806119],[6.690577922135107,7.762166809574895],[6.693801857027205,7.7578281088579795],[6.700285386929849,7.749101578827233],[6.707892624836537,7.734453493502212],[6.73010341122977,7.709883821962504],[6.7471416424916955,7.693697302359598],[6.759096424227984,7.686018692966758],[6.757299459708922,7.708501474300424],[6.758650568481937,7.749262156502509],[6.763261296509968,7.763241436479187],[6.771559653059815,7.783793440128825],[6.7728751086278445,7.787044080042268],[6.778975167816699,7.821963334100358],[6.779858010072868,7.847986649411503],[6.780892529527747,7.854880443207113],[6.777976305621348,7.902855894230605],[6.775439098138322,7.945525051397232],[6.774578458993616,7.963744917339879],[6.77551043046285,7.99276030456329],[6.76537933031019,8.036713594770879],[6.759261435744353,8.05778288657796],[6.751435696757239,8.073122188530396],[6.7451082450041415,8.081295716591386],[6.7387807590723625,8.089469259669746],[6.725385641083664,8.102596849350283],[6.7175019594990495,8.11448483459212],[6.702332063829757,8.132249907475337],[6.696682456645511,8.15377398736016],[6.686997240004538,8.167998463359009],[6.680562778250153,8.19814196865307],[6.6700793953832225,8.198320364768302],[6.667127469125771,8.200077245984719],[6.654526104686006,8.207581915976007],[6.63738533511328,8.227358044979347],[6.637073140129703,8.227719228810404],[6.626175154115439,8.239210345661592],[6.61077334569853,8.257697796522814],[6.60107485291469,8.271935702788445],[6.590292745491935,8.29034283220516],[6.579207389470592,8.304607475530554],[6.569464253001174,8.316076290966473],[6.562195930428557,8.324575381155286],[6.560853754747416,8.326140485385885],[6.549309166904297,8.340414117153253],[6.539356416599426,8.354139194356003],[6.537791259110452,8.356297393685407],[6.530585405437675,8.361996154112628],[6.5261619774766295,8.365492065967922],[6.512971907720731,8.377941883817115],[6.504602170913002,8.388697256561462],[6.501663667626452,8.392438386779292],[6.501663667626452,8.392540945993638],[6.501663667626452,8.392598921540854],[6.501668061122498,8.39267029979971],[6.493927112513875,8.399492737496253],[6.482939892281269,8.405445625850406],[6.468207009531218,8.413815342523248],[6.455712593569387,8.420905308864157],[6.449657109957391,8.425012149647037],[6.443838019684107,8.428954038716304],[6.4429150168116545,8.429663025221585],[6.4340324452838855,8.436503271795274],[6.431455056333619,8.448542789388167],[6.425484384528762,8.464791775221961],[6.421493443945372,8.476733280972995],[6.419977354284522,8.48126820965405],[6.415313117151754,8.49287969185806],[6.4128115664364636,8.50208325194479],[6.410082634267525,8.512116235711336],[6.404401726687535,8.53205734165713],[6.399327299175616,8.545069008643505],[6.395978473038826,8.553652736700792],[6.392763433326891,8.569165976333538],[6.391238452732505,8.572728828213252],[6.38898215693773,8.577995032500775],[6.382387133481147,8.584340260482676],[6.382391599879014,8.584509756602815],[6.382391599879015,8.584567725726364],[6.382364882703775,8.584647989126617],[6.38234701712182,8.584701499004085],[6.382329151544954,8.584750504832675],[6.382297968004797,8.58484418764308],[6.380585658138076,8.590025664217906],[6.379087445654976,8.594547209570479],[6.3735670243514875,8.601003919339195],[6.37047686925654,8.604611345612819],[6.368113582764392,8.608120676992648],[6.36371241445004,8.614648841393617],[6.362285476443088,8.61679360400878],[6.357710515353095,8.62366952937854],[6.357153087348978,8.624503447553291],[6.357063876600157,8.624637199556647],[6.3568141845888055,8.625011788354172],[6.356725055496992,8.625149963200512],[6.351762031732141,8.632382668459382],[6.348168036264891,8.638674453319688],[6.338411477489804,8.649220223460025],[6.3249806946456815,8.66121962894924],[6.316098181459558,8.668751083198865],[6.307278008524009,8.67997460525482],[6.291287733510261,8.690859331871438],[6.275721012536431,8.698970412120136],[6.261344828277525,8.709596401297196],[6.246446973152137,8.716307387984676],[6.235664867517313,8.720414250755526],[6.223937485780933,8.723615866315669],[6.210898994970231,8.725470858181632]]]},"id":"000000000000000010ca","properties":{"ADM0_CODE":182,"ADM0_NAME":"Nigeria","ADM1_CODE":2228,"ADM1_NAME":"Kogi","ADM2_CODE":22907,"ADM2_NAME":"Lokoja","DISP_AREA":"NO","EXP2_YEAR":3000,"STATUS":"Member State","STR2_YEAR":1000,"Shape_Area":0.278365940345,"Shape_Leng":3.5749520027}}]}